{"type":"FeatureCollection","features":[{"type":"Feature","id":"bole_subcity_boundary.1","geometry":{"type":"MultiPolygon","coordinates":[[[[38.77379406,8.98621881],[38.77382617,8.98618692],[38.77420269,8.98712446],[38.77424029,8.98738729],[38.77425725,8.98746284],[38.77427307,8.987607],[38.77427266,8.98761357],[38.77439043,8.98843681],[38.77514263,8.98937279],[38.77516334,8.98936501],[38.77525634,8.98931885],[38.77529949,8.9892675],[38.77533584,8.98919093],[38.77534946,8.98912338],[38.77540872,8.98909888],[38.7754572,8.98910022],[38.77551273,8.98910594],[38.77557135,8.98912393],[38.77559407,8.98915122],[38.77589851,8.98900011],[38.77572969,8.98966972],[38.77572842,8.98978521],[38.77574539,8.98985885],[38.7757668,8.98995172],[38.77575534,8.99016351],[38.77568492,8.99025579],[38.77565764,8.99034142],[38.77568479,8.9904608],[38.7757431,8.99054398],[38.7763969,8.9906744],[38.77640049,8.99067448],[38.77642324,8.99063389],[38.77648672,8.99061819],[38.77660703,8.99065434],[38.77684512,8.99080542],[38.77716488,8.99111435],[38.77725003,8.99117723],[38.77797099,8.99162583],[38.77774551,8.99214802],[38.77773008,8.99220692],[38.77771877,8.99220995],[38.77748573,8.99274966],[38.77746635,8.99279453],[38.77748035,8.99292699],[38.7775931,8.99291105],[38.77759285,8.99331275],[38.77739878,8.99353758],[38.77737203,8.99365961],[38.77702262,8.99421946],[38.77676954,8.99429598],[38.77674947,8.99428979],[38.77646072,8.9946243],[38.77683748,8.99518691],[38.77759171,8.99518737],[38.77721425,8.99574952],[38.77683691,8.99612422],[38.77663868,8.99651778],[38.77662136,8.99663759],[38.77660111,8.99683473],[38.77655712,8.99693875],[38.7761766,8.99743516],[38.77609107,8.99760496],[38.77608407,8.99760844],[38.77537038,8.99796267],[38.77536861,8.99796847],[38.77536496,8.99798818],[38.77535585,8.99801504],[38.77535056,8.99803349],[38.77533826,8.99805609],[38.77532178,8.99807354],[38.77531195,8.9980928],[38.77529847,8.99811631],[38.7752889,8.99813485],[38.77527852,8.99815754],[38.77527523,8.9981788],[38.77526521,8.99819715],[38.77526047,8.9982166],[38.7752549,8.99823839],[38.77525025,8.9982563],[38.77523959,8.9982799],[38.77523121,8.99830043],[38.77521253,8.99830924],[38.7750697,8.99866362],[38.77465319,8.99893931],[38.77437521,8.999629],[38.77395853,9.00018063],[38.77395836,9.00045657],[38.77395793,9.00114643],[38.77465157,9.00156077],[38.77409602,9.00225029],[38.77446772,9.00243534],[38.77447138,9.0024365],[38.77450063,9.00245008],[38.77454835,9.00247081],[38.77458858,9.00248861],[38.77461541,9.00250047],[38.77463031,9.00251232],[38.7746436,9.0025229],[38.77520592,9.00280286],[38.77548297,9.00363085],[38.77491209,9.003744],[38.77490441,9.0037551],[38.77489302,9.00377336],[38.77488218,9.00379444],[38.77487253,9.00381758],[38.77487106,9.00383585],[38.77486959,9.0038609],[38.77486994,9.00388026],[38.77487174,9.00390794],[38.774876,9.00393942],[38.77488135,9.00396167],[38.77489116,9.00398574],[38.77490097,9.00401659],[38.77490778,9.0040336],[38.77492533,9.00405893],[38.77493423,9.00408191],[38.77494914,9.00410128],[38.77496805,9.0041287],[38.77497795,9.00414525],[38.7749844,9.00416326],[38.77499421,9.00419275],[38.77500838,9.00422035],[38.77502202,9.00424089],[38.77502956,9.00426251],[38.77503955,9.00428187],[38.77504673,9.00430584],[38.775058,9.00432539],[38.77507053,9.00435262],[38.77507689,9.00437207],[38.77508561,9.00439098],[38.77509013,9.00441328],[38.77509297,9.00443142],[38.7750837,9.00448176],[38.77541437,9.00492065],[38.77548212,9.00501057],[38.77673149,9.00445944],[38.77669427,9.00460705],[38.77669999,9.00460491],[38.77694788,9.00526403],[38.77756341,9.00570169],[38.77755852,9.00570558],[38.77749552,9.00575562],[38.77750813,9.00576464],[38.7773782,9.00588273],[38.77726454,9.00600768],[38.7771603,9.00614666],[38.77712474,9.00620489],[38.77707148,9.00629207],[38.77621386,9.00785765],[38.77556221,9.00904723],[38.77506262,9.01011526],[38.77494129,9.01095589],[38.77492503,9.01106857],[38.77562774,9.0114317],[38.77742058,9.01232424],[38.77742069,9.01213453],[38.77751635,9.01236076],[38.77754181,9.01242097],[38.77779556,9.01255219],[38.77842393,9.01287681],[38.78130536,9.01425817],[38.78269296,9.01467291],[38.78741099,9.01577944],[38.78745196,9.01578951],[38.78866479,9.01608755],[38.78894351,9.01614939],[38.7903313,9.01645732],[38.79196532,9.01681989],[38.79337689,9.01713309],[38.79347093,9.01715395],[38.7935705,9.01718101],[38.79422282,9.01738663],[38.79508577,9.01766537],[38.79754093,9.01826865],[38.79757093,9.01827761],[38.80127666,9.019385],[38.80168328,9.01947356],[38.80352201,9.01976714],[38.80668512,9.02029083],[38.80760302,9.02043964],[38.81183505,9.0199319],[38.81203754,9.01991942],[38.81231259,9.01988933],[38.81384586,9.01980799],[38.81446502,9.01976983],[38.81673731,9.01959628],[38.81731065,9.01951499],[38.81889899,9.0192901],[38.81905231,9.01926134],[38.81905234,9.01921006],[38.8199093,9.01910056],[38.82052923,9.01898425],[38.82096977,9.01890625],[38.82164029,9.01883066],[38.82202785,9.01882985],[38.8230774,9.01869573],[38.82330875,9.01878956],[38.82566867,9.01974668],[38.82604735,9.01989692],[38.8295638,9.02130847],[38.83029522,9.02160215],[38.83057459,9.02171417],[38.83060443,9.02156623],[38.8307625,9.02156088],[38.84320663,9.02113982],[38.848976,9.02094447],[38.84973229,9.02091306],[38.8513935,9.02082498],[38.8516359,9.02081212],[38.85164711,9.02054175],[38.85212,9.02061317],[38.85233349,9.02061676],[38.85462025,9.02065518],[38.8567733,9.02054169],[38.85677341,9.02054168],[38.85826562,9.02046351],[38.85826969,9.02046329],[38.8591584,9.02041673],[38.85963513,9.02044491],[38.86123933,9.02054325],[38.86271798,9.0206283],[38.86431903,9.02072293],[38.86573091,9.02080643],[38.86656242,9.02085557],[38.8670451,9.02086366],[38.86743342,9.0208638],[38.87746047,9.02139975],[38.87796535,9.02140136],[38.87934038,9.02148119],[38.88075783,9.02155481],[38.88087776,9.02156103],[38.88391842,9.02171894],[38.88597728,9.02182584],[38.88598067,9.02182602],[38.8868713,9.02187226],[38.88805236,9.02181391],[38.88953066,9.02201032],[38.89047235,9.0220592],[38.89069703,9.0221551],[38.89081956,9.0222074],[38.89162268,9.02296463],[38.89242578,9.02372185],[38.8924258,9.02372187],[38.89446695,9.02564637],[38.89467018,9.0248433],[38.89569231,9.02462769],[38.8961382,9.02443875],[38.89647131,9.02360155],[38.89618781,9.02282518],[38.89620671,9.02264736],[38.89616867,9.02252749],[38.8962303,9.02242545],[38.89623044,9.02242404],[38.89643451,9.02202158],[38.89647759,9.02201598],[38.89650167,9.0219761],[38.89754775,9.02187682],[38.89817664,9.02179504],[38.898024,9.02062877],[38.89886695,9.02012629],[38.89904587,9.01997337],[38.89914964,9.01995778],[38.89923859,9.01990475],[38.90049715,9.01975473],[38.90056463,9.01955206],[38.90093926,9.0179736],[38.90129673,9.01742927],[38.9017251,9.01747197],[38.9021436,9.01742397],[38.90209664,9.01719356],[38.90186472,9.01659509],[38.90194791,9.01646369],[38.90191123,9.0162837],[38.90284535,9.0150462],[38.90354819,9.01393606],[38.9038548,9.01386977],[38.90409781,9.01362831],[38.90464957,9.01369792],[38.90470686,9.01368553],[38.9044177,9.0128635],[38.90433301,9.0126929],[38.90433784,9.01263648],[38.90432606,9.01260299],[38.90434414,9.01256291],[38.90436441,9.01232621],[38.90515906,9.010701],[38.9055247,9.00994641],[38.90604205,9.00879978],[38.90622849,9.00778865],[38.9063009,9.00695115],[38.90616269,9.00617429],[38.90599777,9.0052474],[38.90588374,9.00445368],[38.90587653,9.00440346],[38.90587485,9.00439457],[38.90587394,9.00438541],[38.90578909,9.0037948],[38.90576852,9.00333467],[38.90571008,9.00275219],[38.90571663,9.00263158],[38.90567254,9.00233],[38.90581226,9.0016211],[38.90593084,9.0008362],[38.90585987,9.00065967],[38.90556013,9.00001777],[38.90415537,9.00024686],[38.9033136,8.99997953],[38.9032056,8.99996205],[38.90288737,8.99889944],[38.90288789,8.99696782],[38.90284872,8.99514197],[38.90284895,8.99513323],[38.9028412,8.99499005],[38.90285755,8.99479946],[38.90288879,8.9935875],[38.90300425,8.9930891],[38.90305055,8.99254922],[38.90362064,8.99209217],[38.90476962,8.99098728],[38.90484663,8.99064032],[38.90488262,8.98992835],[38.90486929,8.98980214],[38.90389677,8.9881897],[38.90389674,8.98818855],[38.9038069,8.98804268],[38.90387481,8.98732859],[38.90386201,8.9868271],[38.90393402,8.98670585],[38.90394421,8.9865987],[38.90440823,8.98590741],[38.90458314,8.9856129],[38.90462412,8.98544389],[38.9046685,8.98495997],[38.904769,8.98484649],[38.90478173,8.98479399],[38.90524835,8.98409164],[38.90584349,8.9835829],[38.90626549,8.98305268],[38.90589999,8.98212813],[38.90555793,8.98190763],[38.90535029,8.98177379],[38.90516491,8.98167543],[38.90494639,8.98097955],[38.90488546,8.98081955],[38.90489,8.98001793],[38.90489004,8.98001695],[38.90489018,8.97948494],[38.90475675,8.97919484],[38.90450586,8.97875111],[38.90354258,8.9775555],[38.9033973,8.977273],[38.90307384,8.97685737],[38.9030852,8.97666613],[38.9030617,8.97662043],[38.90313382,8.97567556],[38.90318014,8.97506871],[38.90318445,8.97499609],[38.90304647,8.9748451],[38.90266219,8.97443652],[38.90202709,8.9743272],[38.90067592,8.97540323],[38.90020711,8.97585367],[38.90006418,8.97584797],[38.89973644,8.97596066],[38.89960476,8.97582967],[38.899492,8.97582517],[38.89947152,8.97569712],[38.89925088,8.97547762],[38.89938518,8.97521405],[38.8993852,8.97515736],[38.89938226,8.97513899],[38.89938521,8.97510212],[38.89938533,8.97466661],[38.8992753,8.97433811],[38.89927041,8.97417598],[38.89916258,8.97374374],[38.89941084,8.97312334],[38.89943604,8.97309085],[38.89944083,8.97307903],[38.89966119,8.97264113],[38.90059727,8.97247715],[38.90115828,8.97234859],[38.90128321,8.97231787],[38.90219564,8.97176604],[38.90362695,8.96738671],[38.9035074,8.96712239],[38.90285091,8.96593256],[38.90274641,8.96579889],[38.90159026,8.96541537],[38.90134698,8.96518949],[38.90100235,8.96496048],[38.90079451,8.96467653],[38.90076458,8.96464873],[38.90073595,8.96459651],[38.90041903,8.96416352],[38.89978862,8.96390095],[38.89966424,8.96382676],[38.89929104,8.96377722],[38.89894273,8.96372769],[38.89880677,8.96373515],[38.8979056,8.96391937],[38.89779815,8.96394984],[38.89769254,8.96396292],[38.89702069,8.96410026],[38.89661894,8.96405981],[38.89640479,8.96407304],[38.89605074,8.96400259],[38.89594553,8.96399199],[38.89590885,8.96397435],[38.89578281,8.96394928],[38.89571357,8.96388045],[38.89525891,8.96366181],[38.89542691,8.9617546],[38.89559041,8.95966555],[38.89470996,8.95796822],[38.89448139,8.95733007],[38.89432414,8.9569861],[38.89411789,8.95632974],[38.89382912,8.95550929],[38.89349906,8.95468882],[38.89350997,8.95452161],[38.89351144,8.95449907],[38.89349969,8.95446422],[38.89352583,8.95194457],[38.89359158,8.95184657],[38.8935992,8.95176355],[38.89378482,8.95141173],[38.89391981,8.95119394],[38.89418973,8.95092592],[38.89427495,8.95088225],[38.89526272,8.95035888],[38.89681474,8.95056873],[38.8974205,8.95065494],[38.89859848,8.95024191],[38.89908385,8.95002163],[38.89987942,8.94953513],[38.90014234,8.94921437],[38.90072188,8.94812023],[38.90082281,8.94787032],[38.90085923,8.9467461],[38.90080218,8.94416205],[38.90068321,8.94372817],[38.90065553,8.94364772],[38.90016916,8.94263142],[38.90008544,8.9425046],[38.89975718,8.94221558],[38.89946991,8.94196264],[38.89896811,8.94163931],[38.8975963,8.94093155],[38.89647136,8.94075914],[38.89634119,8.94062963],[38.89607128,8.94051399],[38.89319326,8.94078164],[38.89152451,8.94168782],[38.89032741,8.94239406],[38.88948288,8.94293561],[38.88892746,8.94327235],[38.88845245,8.94344698],[38.88797094,8.94362622],[38.88700189,8.94405947],[38.8867107,8.94423293],[38.88637643,8.94433769],[38.8854968,8.94459958],[38.88509216,8.94472179],[38.88489715,8.94474063],[38.88470099,8.94479993],[38.88205655,8.94503813],[38.88185528,8.94507032],[38.88148584,8.94515759],[38.88108123,8.94519241],[38.88082455,8.94515833],[38.8792489,8.94531448],[38.87754569,8.9453075],[38.87747501,8.94531358],[38.87735843,8.94530673],[38.87571111,8.94529996],[38.87538165,8.94536531],[38.87480061,8.94560028],[38.87470791,8.94565141],[38.87455855,8.94573834],[38.87441433,8.94583037],[38.87428041,8.945948],[38.87410013,8.94608607],[38.87391471,8.94623437],[38.87381864,8.94633356],[38.87357624,8.94693553],[38.8735694,8.94710397],[38.87356417,8.94733931],[38.87352678,8.94752713],[38.87352158,8.94768061],[38.87343395,8.94792103],[38.87330513,8.9481819],[38.87317522,8.94828565],[38.8731036,8.94841016],[38.87185194,8.94899531],[38.8716982,8.94908688],[38.87149734,8.94917378],[38.87134284,8.94924536],[38.87116774,8.94930157],[38.87105091,8.9493196],[38.87085305,8.9493253],[38.87076621,8.94930651],[38.86998782,8.94944166],[38.86968483,8.9496567],[38.86950996,8.94987959],[38.86942121,8.95003376],[38.86929578,8.95029663],[38.86915158,8.95052238],[38.86899908,8.95069305],[38.86894366,8.9507424],[38.86886229,8.95090408],[38.86816984,8.95124803],[38.86581906,8.95093233],[38.86552278,8.95093823],[38.86460361,8.95115074],[38.86393824,8.95147152],[38.8634566,8.95172685],[38.86334617,8.95177946],[38.86323685,8.95184857],[38.86307305,8.95190958],[38.86288139,8.95200089],[38.86266903,8.95206006],[38.86185201,8.95236435],[38.86117553,8.95217189],[38.86085943,8.95211753],[38.86054975,8.95201967],[38.8587367,8.95201898],[38.85850183,8.95202642],[38.85805017,8.95208401],[38.85686855,8.95213283],[38.85596136,8.9521029],[38.85550832,8.951964],[38.85492271,8.95178445],[38.85465762,8.95169506],[38.85458292,8.95167318],[38.85455825,8.95166155],[38.85376649,8.95139455],[38.85272508,8.95084088],[38.8520562,8.95056021],[38.85129327,8.95019643],[38.85115974,8.95011675],[38.84999715,8.9496062],[38.84956469,8.9492932],[38.84951663,8.94927142],[38.84853434,8.94855444],[38.84844151,8.94848028],[38.84809386,8.94822866],[38.8472545,8.94754523],[38.84684628,8.94746166],[38.84394028,8.94753855],[38.84371959,8.94744243],[38.84349516,8.94741503],[38.84324505,8.94738615],[38.84282103,8.94721743],[38.84261246,8.94696025],[38.84255591,8.94693562],[38.84184058,8.94583534],[38.84180839,8.94580134],[38.84147366,8.94537602],[38.84132872,8.94521988],[38.84079091,8.94472764],[38.84069715,8.9446501],[38.84057947,8.94455279],[38.83929301,8.94405171],[38.83918219,8.94400854],[38.83778152,8.94212551],[38.8376163,8.94198874],[38.83730653,8.94178839],[38.83721467,8.94170624],[38.83664582,8.94170599],[38.83604446,8.94194487],[38.83600827,8.94198315],[38.83586563,8.94208554],[38.83572033,8.9421004],[38.83564165,8.94210525],[38.83533661,8.94237849],[38.83519623,8.94246688],[38.8351221,8.94261414],[38.8349952,8.94258253],[38.83495712,8.94259331],[38.83488901,8.9426126],[38.83464314,8.94258808],[38.83439733,8.94242691],[38.83419579,8.94224125],[38.83400896,8.9422021],[38.83390578,8.94213378],[38.83375503,8.94193594],[38.8335486,8.94161363],[38.83342573,8.94147684],[38.83337171,8.94132552],[38.83329806,8.94115457],[38.83313592,8.94092996],[38.83300323,8.9407541],[38.83290808,8.94069346],[38.8327915,8.94069341],[38.83200134,8.94088945],[38.83189587,8.94101495],[38.83178669,8.94105419],[38.83161449,8.94116638],[38.83139811,8.94128837],[38.83121617,8.94138098],[38.83104402,8.9413809],[38.83084241,8.94136137],[38.83054248,8.94130751],[38.83050319,8.94126354],[38.83049764,8.94124882],[38.83040044,8.94124878],[38.82994373,8.94064269],[38.82972528,8.94020776],[38.82955635,8.93998801],[38.82939907,8.93979758],[38.82939899,8.93979745],[38.82903031,8.93943051],[38.82835424,8.93875764],[38.82834113,8.93874753],[38.82826287,8.93866975],[38.82796442,8.9385212],[38.8273551,8.93852092],[38.82724588,8.93844844],[38.82685762,8.9384231],[38.82664126,8.93835463],[38.82642981,8.93834476],[38.82605122,8.93840807],[38.82584464,8.93842262],[38.82576595,8.93844203],[38.82538247,8.9383638],[38.82493497,8.93836848],[38.82480902,8.93839247],[38.82415511,8.93837272],[38.823688,8.93830422],[38.8233389,8.93832847],[38.8228717,8.93827933],[38.82259149,8.93823533],[38.82226795,8.93813615],[38.82203203,8.93802861],[38.82146655,8.93787695],[38.82107324,8.93780849],[38.82078307,8.93788639],[38.82053709,8.93810114],[38.82022712,8.93848659],[38.81994386,8.93884673],[38.81975696,8.93896873],[38.81947661,8.93904673],[38.81868971,8.93934414],[38.81831591,8.93942209],[38.81806028,8.93942684],[38.8178069,8.93958082],[38.81760017,8.93989316],[38.81749679,8.9400737],[38.81748687,8.94026415],[38.81753329,8.94040253],[38.81796949,8.94077467],[38.81804715,8.94079164],[38.81826878,8.94096647],[38.81850473,8.94118136],[38.81860298,8.94136209],[38.81866186,8.94165015],[38.81876003,8.94199682],[38.81880907,8.94217744],[38.81886885,8.94234278],[38.81884412,8.94258684],[38.81879,8.94266983],[38.81873094,8.94272831],[38.81863259,8.94275277],[38.8185883,8.9428308],[38.8184997,8.94300167],[38.81845502,8.94304374],[38.81840132,8.94309431],[38.81824394,8.94311865],[38.81806158,8.9432111],[38.81760342,8.94366622],[38.81745094,8.94396908],[38.81664285,8.94396868],[38.81647615,8.9439815],[38.81609255,8.94398619],[38.81583501,8.94406032],[38.81547039,8.94442251],[38.81505179,8.94460065],[38.81502086,8.94465549],[38.81472577,8.94482129],[38.81423884,8.94505545],[38.81409693,8.94509413],[38.81333712,8.9456332],[38.81196636,8.9451781],[38.81189084,8.94495244],[38.81168307,8.94487447],[38.81157,8.94478163],[38.81147266,8.94464939],[38.81138284,8.94447813],[38.8111326,8.9442493],[38.81096275,8.94414829],[38.81065792,8.94399684],[38.81038255,8.9438795],[38.81021049,8.94385988],[38.80994987,8.94379626],[38.8098565,8.94375724],[38.80967947,8.94377171],[38.80951823,8.94382207],[38.80932042,8.94388384],[38.80926632,8.94392288],[38.80899581,8.94397157],[38.80866141,8.9440007],[38.80842046,8.94403476],[38.80811548,8.94417124],[38.80787641,8.94419599],[38.80755556,8.94420493],[38.80700163,8.9443882],[38.80623417,8.94476926],[38.80619439,8.94480535],[38.80610179,8.94487222],[38.80598752,8.94489173],[38.8058792,8.94494551],[38.8051778,8.94508461],[38.80424324,8.94508412],[38.80413958,8.9451055],[38.80382479,8.94533973],[38.80364274,8.94548605],[38.80348041,8.94563734],[38.80336721,8.94580323],[38.80326501,8.94596542],[38.8029324,8.9471755],[38.80272718,8.94751519],[38.80264446,8.94767081],[38.80262288,8.94768783],[38.80251123,8.94787264],[38.80237219,8.94787256],[38.80225768,8.9479363],[38.80222636,8.94795373],[38.80198543,8.94794872],[38.80165296,8.94779749],[38.80143477,8.94769458],[38.80097766,8.94727446],[38.80049885,8.94676832],[38.80006632,8.94639705],[38.79985606,8.94619755],[38.79984547,8.94619754],[38.79970679,8.94619747],[38.79964134,8.94609431],[38.79957302,8.9460667],[38.79922412,8.94557339],[38.79891458,8.94511925],[38.79839272,8.94434414],[38.79824823,8.94415584],[38.79798724,8.9437695],[38.79794302,8.94369622],[38.79785456,8.94360828],[38.79779982,8.94354647],[38.79521972,8.94354505],[38.79437899,8.9420104],[38.79367782,8.94173106],[38.79316063,8.9413633],[38.79281463,8.94124413],[38.7924017,8.94099494],[38.79102532,8.94017394],[38.79085003,8.94005988],[38.79040234,8.93982389],[38.79032293,8.93979129],[38.79024328,8.93977653],[38.78963776,8.93977618],[38.789546,8.93979085],[38.7893197,8.93991769],[38.78914742,8.94016167],[38.78898506,8.94035691],[38.78883746,8.94046417],[38.78868502,8.94051291],[38.78847851,8.94052745],[38.78829167,8.94051269],[38.78813915,8.94056632],[38.78791291,8.94059549],[38.78785193,8.94058791],[38.78778732,8.94061196],[38.78743072,8.94043441],[38.78727465,8.94036886],[38.7871634,8.94030132],[38.78694598,8.94019306],[38.78691643,8.94004569],[38.78690108,8.94003667],[38.78681269,8.93982673],[38.78680291,8.93974859],[38.7867587,8.93967043],[38.78674395,8.93962647],[38.78674894,8.93954843],[38.78677359,8.93947031],[38.7867294,8.93936285],[38.78672825,8.93927821],[38.78673616,8.93922178],[38.78672516,8.93916526],[38.78668566,8.93911351],[38.78666516,8.939035],[38.78666206,8.93893932],[38.78667628,8.93887196],[38.7866478,8.93882808],[38.78663207,8.93879045],[38.78663045,8.93873556],[38.78663214,8.93867126],[38.78660054,8.93857557],[38.78655163,8.93846259],[38.78651657,8.93839393],[38.78646919,8.93834842],[38.78630332,8.93825888],[38.78614861,8.93807847],[38.78599477,8.93794852],[38.78586204,8.93789039],[38.78577836,8.93784332],[38.78576384,8.93777555],[38.78526444,8.93740266],[38.78506883,8.93727282],[38.78498656,8.93724356],[38.78426795,8.93705279],[38.78413835,8.9370339],[38.78406094,8.93702445],[38.7839757,8.93695224],[38.78390964,8.93691648],[38.78362819,8.93685411],[38.78349884,8.93690087],[38.78336919,8.93696355],[38.78330917,8.93697608],[38.783197,8.93691796],[38.78316031,8.93690339],[38.78287987,8.93694305],[38.78281044,8.9369842],[38.78259393,8.93706565],[38.78232536,8.93700119],[38.78216944,8.9369775],[38.78199252,8.93692558],[38.78183452,8.93686905],[38.78155968,8.93676535],[38.78153437,8.93667526],[38.78150526,8.93658192],[38.78147073,8.93650215],[38.78119746,8.93628451],[38.78113214,8.93582791],[38.78111988,8.93580705],[38.78107842,8.93564868],[38.78103267,8.93551535],[38.78091423,8.93539293],[38.78085427,8.93532697],[38.78060088,8.93503516],[38.78045334,8.93494702],[38.77980901,8.93526689],[38.77972645,8.93527857],[38.77965904,8.93530971],[38.77950697,8.93535791],[38.77925207,8.9354075],[38.77913235,8.93541105],[38.7789506,8.93542703],[38.7784695,8.93553779],[38.77844309,8.93556702],[38.77823699,8.93560321],[38.77803631,8.93572609],[38.77793592,8.93577134],[38.77779284,8.93578219],[38.77754024,8.93615846],[38.77752167,8.93625617],[38.77747596,8.93641919],[38.77736037,8.93655495],[38.77718095,8.93667566],[38.77709573,8.93682961],[38.77701966,8.93696539],[38.77658255,8.93715539],[38.77656237,8.93716416],[38.77638291,8.93723649],[38.77616096,8.93736314],[38.77605972,8.93748106],[38.77563474,8.93825467],[38.77548821,8.93860636],[38.77540609,8.9388356],[38.77545558,8.93898353],[38.77534804,8.93972881],[38.77599022,8.94026159],[38.77598376,8.9403127],[38.77600126,8.94032714],[38.77614405,8.94048123],[38.77616524,8.94055368],[38.77615303,8.94077107],[38.77612855,8.94094016],[38.77607069,8.94109712],[38.77602505,8.9411575],[38.77572799,8.94132462],[38.7754912,8.94143408],[38.77500168,8.9415877],[38.77497194,8.94159222],[38.77481131,8.94185806],[38.7749461,8.9421937],[38.77506522,8.94229727],[38.77511984,8.94240898],[38.77514404,8.94256599],[38.77508621,8.9426837],[38.77483982,8.942907],[38.7747648,8.94297313],[38.77433046,8.94335596],[38.77405891,8.94366687],[38.77365454,8.9439158],[38.77331062,8.94430614],[38.77306765,8.9444509],[38.7728295,8.9447467],[38.77257097,8.94495779],[38.77245313,8.94502481],[38.77191766,8.94568951],[38.77223865,8.94611562],[38.77277381,8.94654186],[38.77277371,8.94670573],[38.77280037,8.94684408],[38.77280337,8.94697385],[38.77277346,8.94711486],[38.77277322,8.94750017],[38.77254976,8.94777755],[38.77231062,8.94818362],[38.77212977,8.94899047],[38.77222987,8.94979072],[38.77223349,8.94979597],[38.77226994,8.94981715],[38.77231244,8.94986249],[38.77241279,8.94988371],[38.7724523,8.94991385],[38.77247103,8.94993588],[38.77277163,8.95005565],[38.77309276,8.9502688],[38.77287806,8.9511205],[38.77384138,8.95186643],[38.77426933,8.95250557],[38.77530551,8.95258545],[38.77533885,8.95258218],[38.77546959,8.95258524],[38.77554437,8.95260387],[38.7756614,8.95261289],[38.7756975,8.95266081],[38.77571152,8.95266678],[38.77573639,8.95271243],[38.7759824,8.953039],[38.77619593,8.95410391],[38.77615145,8.95414549],[38.77615203,8.95416474],[38.77611602,8.95426026],[38.77622444,8.95439868],[38.77626088,8.95453761],[38.77631557,8.95477276],[38.77652811,8.95521366],[38.77653109,8.95536766],[38.77653247,8.95544653],[38.776673,8.95581985],[38.77677142,8.95599133],[38.77679278,8.95602545],[38.77707145,8.95638164],[38.77716642,8.95649366],[38.7772453,8.95659691],[38.77739473,8.95679249],[38.77746468,8.95684082],[38.77751627,8.95687712],[38.77754061,8.95693447],[38.77753749,8.95701902],[38.77755874,8.95709752],[38.77756179,8.95714283],[38.77754954,8.95717601],[38.77754952,8.95721834],[38.77757385,8.95729079],[38.7775799,8.95733908],[38.77757987,8.95739045],[38.77757375,8.95745076],[38.77756156,8.95752021],[38.77753116,8.95755944],[38.77742999,8.95788538],[38.77738135,8.9579397],[38.77734728,8.95796828],[38.77728127,8.95819745],[38.77730504,8.95846796],[38.77729889,8.95859483],[38.77722886,8.95867329],[38.77715895,8.95871948],[38.77715584,8.95872153],[38.77712993,8.95872291],[38.77704813,8.95900693],[38.77643673,8.95870251],[38.77642629,8.95870301],[38.77640804,8.95873012],[38.77640962,8.95874643],[38.77667106,8.9590067],[38.77671655,8.9592336],[38.77682444,8.95933392],[38.77692475,8.95942758],[38.77698552,8.95953324],[38.7770126,8.95964991],[38.77698211,8.95983103],[38.776948,8.96012133],[38.77715006,8.96052376],[38.77731614,8.96057096],[38.77741975,8.96067023],[38.7774254,8.96071175],[38.77744402,8.96084839],[38.77742868,8.96102355],[38.77737992,8.96116243],[38.77733123,8.96128611],[38.77724953,8.96158185],[38.77724952,8.9615819],[38.7772487,8.96159149],[38.77724114,8.96160876],[38.77723508,8.96161424],[38.77723507,8.96163151],[38.77720352,8.96166285],[38.77719743,8.96167196],[38.77719578,8.96169312],[38.77718404,8.96170831],[38.77716574,8.96172286],[38.777156,8.96174158],[38.77714771,8.9617584],[38.77714433,8.96178128],[38.77713267,8.9618009],[38.77711786,8.96183771],[38.7770418,8.96196146],[38.77691106,8.96207912],[38.77674682,8.96212732],[38.77673548,8.96212764],[38.77648046,8.9623809],[38.77648062,8.96212377],[38.77638805,8.96210901],[38.77629994,8.96206365],[38.77626459,8.96196551],[38.77625249,8.96188701],[38.77627698,8.96158209],[38.77625246,8.96141099],[38.77551762,8.96130615],[38.77544112,8.961331],[38.77500095,8.9615361],[38.77488203,8.9616281],[38.77487933,8.96162876],[38.7745953,8.96200483],[38.77390588,8.9618673],[38.77390057,8.96189113],[38.77388486,8.96201634],[38.77390604,8.96221756],[38.77393331,8.96239274],[38.77395445,8.96254667],[38.77395742,8.96271886],[38.77394822,8.96279129],[38.77390857,8.9629875],[38.7738886,8.96313806],[38.77384904,8.96318036],[38.77380341,8.96321352],[38.7737942,8.96331615],[38.77374854,8.96338856],[38.77366333,8.96350028],[38.77344431,8.96372659],[38.77315539,8.96391659],[38.77310793,8.96393925],[38.77289705,8.96425334],[38.77270302,8.96386689],[38.77255646,8.96383773],[38.77252309,8.9638226],[38.77249275,8.96375919],[38.77249587,8.96355988],[38.77250805,8.96351467],[38.77245178,8.96350321],[38.77192973,8.96350289],[38.77180338,8.96352283],[38.77173045,8.96354693],[38.77161486,8.96353782],[38.7715511,8.96353778],[38.77148109,8.96357092],[38.77128956,8.96361909],[38.77116792,8.96369146],[38.77110399,8.96371556],[38.77087297,8.96367925],[38.77080917,8.96362187],[38.77078685,8.96358447],[38.77033398,8.96367423],[38.77032717,8.96369916],[38.77031567,8.96391989],[38.77044592,8.96443929],[38.7704457,8.96477888],[38.77047842,8.96485552],[38.77054218,8.96497629],[38.77052686,8.96511518],[38.77049032,8.96525705],[38.77038082,8.96533547],[38.77032307,8.96533245],[38.77017412,8.96527801],[38.76986406,8.96521135],[38.76969686,8.96520528],[38.76960263,8.96522629],[38.76957524,8.96524743],[38.76954765,8.96530038],[38.76971916,8.96572747],[38.76972083,8.96573061],[38.7697695,8.96575777],[38.76986072,8.96575783],[38.76989108,8.96578208],[38.76992451,8.96582732],[38.76994892,8.96589959],[38.7699853,8.96600831],[38.76998526,8.96608075],[38.76995789,8.96617731],[38.76995449,8.96622598],[38.77044439,8.96687629],[38.77195295,8.9665023],[38.77157505,8.9678143],[38.77119773,8.96818899],[38.77116879,8.96821198],[38.77098728,8.96851242],[38.77083543,8.96876376],[38.77060109,8.96911078],[38.77042172,8.96914087],[38.77035552,8.9691729],[38.7705986,8.9697378],[38.77072026,8.97002054],[38.77076899,8.97004586],[38.77108038,8.97014499],[38.77109782,8.97021065],[38.77111516,8.97030978],[38.77111967,8.97041233],[38.77112772,8.97049969],[38.77108822,8.97057454],[38.77102053,8.9706515],[38.77119597,8.97100091],[38.77100672,8.97212556],[38.77090764,8.97261653],[38.77091403,8.97262064],[38.77095235,8.97263224],[38.77096854,8.97265413],[38.77096965,8.97267828],[38.77091725,8.97273567],[38.77087901,8.97275842],[38.77081759,8.97306275],[38.77025172,8.97343733],[38.77018427,8.97339703],[38.77014282,8.97342166],[38.77002218,8.97344464],[38.76985859,8.97342835],[38.76973213,8.97339147],[38.76962086,8.97331191],[38.76951347,8.97325812],[38.76945202,8.97317281],[38.7692061,8.97302813],[38.76893191,8.9734365],[38.76887393,8.97352285],[38.76888258,8.97352776],[38.76888935,8.97362245],[38.76884163,8.97374857],[38.76872072,8.97396589],[38.76860043,8.97402668],[38.76848241,8.97407164],[38.76843649,8.97407674],[38.7680895,8.97430643],[38.76807612,8.97432378],[38.76797388,8.97442057],[38.76782456,8.9746093],[38.76773149,8.97468583],[38.76752042,8.9747736],[38.76729344,8.97486362],[38.76709144,8.97495582],[38.76701364,8.97497852],[38.76697575,8.97498957],[38.76678289,8.97497371],[38.76661329,8.97495796],[38.76652257,8.97489252],[38.76640239,8.9747776],[38.76634117,8.97468062],[38.76627999,8.97462876],[38.76621639,8.97461072],[38.76615283,8.97464224],[38.76603928,8.97483597],[38.76596348,8.97497482],[38.76591411,8.97512176],[38.76562462,8.97560077],[38.76562305,8.97560374],[38.76552988,8.9758493],[38.76539213,8.97601036],[38.76523537,8.97619365],[38.76501981,8.97625438],[38.7649664,8.97625009],[38.76480793,8.97623727],[38.76421636,8.97643291],[38.76478151,8.97718312],[38.76486454,8.97726577],[38.76502209,8.97726134],[38.76518772,8.97727501],[38.7652558,8.97731556],[38.7653306,8.97742377],[38.76551081,8.97774582],[38.76554023,8.97783826],[38.76557118,8.97796925],[38.76572364,8.97812102],[38.76571098,8.97816498],[38.76573969,8.97819216],[38.76576005,8.97825972],[38.76577444,8.97831707],[38.76578041,8.97834085],[38.76578269,8.97839945],[38.76573474,8.97854303],[38.76571528,8.97859755],[38.76566956,8.97868552],[38.76560291,8.97881379],[38.76551882,8.9790503],[38.76544387,8.97917424],[38.7654166,8.97923508],[38.76546191,8.97935891],[38.76549591,8.97945353],[38.76556193,8.97957653],[38.76591111,8.9798083],[38.76651462,8.9808599],[38.76653517,8.98087595],[38.76661527,8.98090259],[38.76659957,8.98100793],[38.76666446,8.981121],[38.76666412,8.98165955],[38.76669031,8.98168849],[38.76668352,8.98174935],[38.76666752,8.98189349],[38.76666393,8.98194819],[38.76666386,8.98205831],[38.76722951,8.98205867],[38.76802981,8.98166145],[38.76809472,8.98153275],[38.76820595,8.98144492],[38.76839426,8.98141122],[38.76857578,8.98144072],[38.76878226,8.98150614],[38.76900904,8.9816167],[38.76925753,8.98179437],[38.76952054,8.98202432],[38.76958777,8.9821997],[38.76960435,8.98224295],[38.76965466,8.98236902],[38.77024582,8.9828104],[38.77037367,8.98293767],[38.77043989,8.98294169],[38.77057146,8.98296212],[38.77062139,8.98301289],[38.77062135,8.98306923],[38.77058274,8.9831458],[38.77062269,8.98318556],[38.77008813,8.98442351],[38.77008953,8.98443351],[38.77007854,8.98444574],[38.77005621,8.98449744],[38.77080982,8.98543522],[38.77194054,8.98637322],[38.77199868,8.98641953],[38.77210034,8.98637932],[38.77217002,8.98639989],[38.77223354,8.98643818],[38.77228115,8.98647203],[38.77232427,8.98649457],[38.77239687,8.98652844],[38.77246721,8.98657352],[38.77252838,8.98664346],[38.7725624,8.98669747],[38.77260315,8.98680122],[38.77266661,8.98692967],[38.77268579,8.98696674],[38.77288283,8.98712365],[38.77303745,8.98774017],[38.77306254,8.98778857],[38.77313056,8.98782912],[38.7731432,8.98783774],[38.77323599,8.98779168],[38.77344814,8.98768638],[38.77353973,8.98705171],[38.77353278,8.98701458],[38.77346302,8.98677181],[38.77341543,8.98657573],[38.77341099,8.98646757],[38.77341312,8.9864534],[38.77342011,8.98640681],[38.77345187,8.98635266],[38.77350189,8.98627383],[38.77356772,8.98619727],[38.77368799,8.98618161],[38.77377425,8.98619514],[38.77379406,8.98621881]],[[38.79747869,9.01746482],[38.79744832,9.01742482],[38.79746405,9.01744455],[38.79747869,9.01746482]]]]},"geometry_name":"geom","properties":{"name":"Bole","admin_level":"sub-city","source":"Ethiopian National Agri Data Hub (WFS)","source_url":"https://data.moa.gov.et/dataset/addis-ababa-city-woreda-boundary1","source_updated":"2024-10-24"}},{"type":"Feature","properties":{"admin_level":"city","name":"Addis Ababa city boundary (published administrative extent)","source":"Ethiopian National Agri Data Hub, Addis Ababa City Woreda Boundary","source_url":"https://data.moa.gov.et/dataset/69097202-4874-4200-800f-b36b7f920bfc"},"geometry":{"type":"Polygon","coordinates":[[[38.637931941,8.832202561],[38.90543632,8.832202561],[38.90543632,9.098292635],[38.637931941,9.098292635],[38.637931941,8.832202561]]]}}]}
